{
  "type": "FeatureCollection",
  "features": [
    {
      "type": "Feature",
      "properties": {
        "norad_id": 35616,
        "name": "IRIDIUM 33 DEB",
        "group": "iridium-33-debris",
        "lat": -23.0836043266215,
        "lon": -14.824924778404226,
        "alt_km": 636.0681918009732,
        "timestamp": "2025-12-10T14:53:37.473651+00:00",
        "meta_object_name": "IRIDIUM 33 DEB",
        "meta_object_id": "1997-051QN",
        "meta_epoch": "2025-12-09T17:55:38.523360",
        "meta_mean_motion": 14.816872,
        "meta_eccentricity": 0.00097125,
        "meta_inclination": 86.355,
        "meta_ra_of_asc_node": 347.1304,
        "meta_arg_of_pericenter": 173.7748,
        "meta_mean_anomaly": 186.3597,
        "meta_ephemeris_type": 0,
        "meta_classification_type": "U",
        "meta_norad_cat_id": 35616,
        "meta_element_set_no": 999,
        "meta_rev_at_epoch": 87530,
        "meta_bstar": 0.0025734917,
        "meta_mean_motion_dot": 0.00020338,
        "meta_mean_motion_ddot": 0,
        "tle_line1": "1 35616U 97051QN  25343.74697365  .00020338  00000+0  25735-2 0  9996",
        "tle_line2": "2 35616  86.3550 347.1304 0009712 173.7748 186.3597 14.81687200875307"
      },
      "geometry": {
        "type": "Point",
        "coordinates": [
          -14.824924778404226,
          -23.0836043266215
        ]
      }
    },
    {
      "type": "Feature",
      "properties": {
        "norad_id": 35618,
        "name": "IRIDIUM 33 DEB",
        "group": "iridium-33-debris",
        "lat": -32.87434720250875,
        "lon": -7.941585919436912,
        "alt_km": 714.0620744709022,
        "timestamp": "2025-12-10T14:53:37.473660+00:00",
        "meta_object_name": "IRIDIUM 33 DEB",
        "meta_object_id": "1997-051QQ",
        "meta_epoch": "2025-12-05T07:42:53.148672",
        "meta_mean_motion": 14.52258119,
        "meta_eccentricity": 0.00302089,
        "meta_inclination": 86.3407,
        "meta_ra_of_asc_node": 356.7447,
        "meta_arg_of_pericenter": 46.3254,
        "meta_mean_anomaly": 314.0448,
        "meta_ephemeris_type": 0,
        "meta_classification_type": "U",
        "meta_norad_cat_id": 35618,
        "meta_element_set_no": 999,
        "meta_rev_at_epoch": 65286,
        "meta_bstar": 0.00091388234,
        "meta_mean_motion_dot": 3.753e-05,
        "meta_mean_motion_ddot": 0,
        "tle_line1": "1 35618U 97051QQ  25339.32144848  .00003753  00000+0  91388-3 0  9990",
        "tle_line2": "2 35618  86.3407 356.7447 0030208  46.3254 314.0448 14.52258119652865"
      },
      "geometry": {
        "type": "Point",
        "coordinates": [
          -7.941585919436912,
          -32.87434720250875
        ]
      }
    },
    {
      "type": "Feature",
      "properties": {
        "norad_id": 35620,
        "name": "IRIDIUM 33 DEB",
        "group": "iridium-33-debris",
        "lat": 59.339243127977575,
        "lon": -135.53567819755185,
        "alt_km": 850.40294528501,
        "timestamp": "2025-12-10T14:53:37.473670+00:00",
        "meta_object_name": "IRIDIUM 33 DEB",
        "meta_object_id": "1997-051QS",
        "meta_epoch": "2025-12-09T21:54:44.064864",
        "meta_mean_motion": 14.37894536,
        "meta_eccentricity": 0.01422721,
        "meta_inclination": 86.3878,
        "meta_ra_of_asc_node": 218.6459,
        "meta_arg_of_pericenter": 268.3253,
        "meta_mean_anomaly": 90.1645,
        "meta_ephemeris_type": 0,
        "meta_classification_type": "U",
        "meta_norad_cat_id": 35620,
        "meta_element_set_no": 999,
        "meta_rev_at_epoch": 59925,
        "meta_bstar": 0.0077821175,
        "meta_mean_motion_dot": 0.00026494,
        "meta_mean_motion_ddot": 0,
        "tle_line1": "1 35620U 97051QS  25343.91301001  .00026494  00000+0  77821-2 0  9991",
        "tle_line2": "2 35620  86.3878 218.6459 0142272 268.3253  90.1645 14.37894536599255"
      },
      "geometry": {
        "type": "Point",
        "coordinates": [
          -135.53567819755185,
          59.339243127977575
        ]
      }
    },
    {
      "type": "Feature",
      "properties": {
        "norad_id": 35622,
        "name": "IRIDIUM 33 DEB",
        "group": "iridium-33-debris",
        "lat": -2.123760213841633,
        "lon": -95.49379076747354,
        "alt_km": 552.3630772847237,
        "timestamp": "2025-12-10T14:53:37.473679+00:00",
        "meta_object_name": "IRIDIUM 33 DEB",
        "meta_object_id": "1997-051QU",
        "meta_epoch": "2025-12-08T18:19:37.394400",
        "meta_mean_motion": 15.03927644,
        "meta_eccentricity": 0.00075851,
        "meta_inclination": 86.2056,
        "meta_ra_of_asc_node": 265.5603,
        "meta_arg_of_pericenter": 342.656,
        "meta_mean_anomaly": 47.239,
        "meta_ephemeris_type": 0,
        "meta_classification_type": "U",
        "meta_norad_cat_id": 35622,
        "meta_element_set_no": 999,
        "meta_rev_at_epoch": 87300,
        "meta_bstar": 0.0061817818,
        "meta_mean_motion_dot": 0.00086206,
        "meta_mean_motion_ddot": 0,
        "tle_line1": "1 35622U 97051QU  25342.76362725  .00086206  00000+0  61818-2 0  9991",
        "tle_line2": "2 35622  86.2056 265.5603 0007585 342.6560  47.2390 15.03927644873009"
      },
      "geometry": {
        "type": "Point",
        "coordinates": [
          -95.49379076747354,
          -2.123760213841633
        ]
      }
    },
    {
      "type": "Feature",
      "properties": {
        "norad_id": 35628,
        "name": "IRIDIUM 33 DEB",
        "group": "iridium-33-debris",
        "lat": 71.15806370171023,
        "lon": 179.26248050789002,
        "alt_km": 665.8137791363088,
        "timestamp": "2025-12-10T14:53:37.473688+00:00",
        "meta_object_name": "IRIDIUM 33 DEB",
        "meta_object_id": "1997-051RA",
        "meta_epoch": "2025-12-08T19:51:11.189376",
        "meta_mean_motion": 14.67493768,
        "meta_eccentricity": 0.00109309,
        "meta_inclination": 86.3576,
        "meta_ra_of_asc_node": 10.8203,
        "meta_arg_of_pericenter": 356.3974,
        "meta_mean_anomaly": 3.7159,
        "meta_ephemeris_type": 0,
        "meta_classification_type": "U",
        "meta_norad_cat_id": 35628,
        "meta_element_set_no": 999,
        "meta_rev_at_epoch": 86389,
        "meta_bstar": 0.0020097942,
        "meta_mean_motion_dot": 0.00011424,
        "meta_mean_motion_ddot": 0,
        "tle_line1": "1 35628U 97051RA  25342.82721284  .00011424  00000+0  20098-2 0  9998",
        "tle_line2": "2 35628  86.3576  10.8203 0010930 356.3974   3.7159 14.67493768863899"
      },
      "geometry": {
        "type": "Point",
        "coordinates": [
          179.26248050789002,
          71.15806370171023
        ]
      }
    },
    {
      "type": "Feature",
      "properties": {
        "norad_id": 35631,
        "name": "IRIDIUM 33 DEB",
        "group": "iridium-33-debris",
        "lat": 21.038785997419893,
        "lon": -159.51150730253053,
        "alt_km": 723.449587476789,
        "timestamp": "2025-12-10T14:53:37.473697+00:00",
        "meta_object_name": "IRIDIUM 33 DEB",
        "meta_object_id": "1997-051RD",
        "meta_epoch": "2025-12-09T20:43:35.982624",
        "meta_mean_motion": 14.47299747,
        "meta_eccentricity": 0.00188235,
        "meta_inclination": 86.3675,
        "meta_ra_of_asc_node": 22.2144,
        "meta_arg_of_pericenter": 126.5445,
        "meta_mean_anomaly": 50.6772,
        "meta_ephemeris_type": 0,
        "meta_classification_type": "U",
        "meta_norad_cat_id": 35631,
        "meta_element_set_no": 999,
        "meta_rev_at_epoch": 87155,
        "meta_bstar": 0.00059485105,
        "meta_mean_motion_dot": 2.2e-05,
        "meta_mean_motion_ddot": 0,
        "tle_line1": "1 35631U 97051RD  25343.86361091  .00002200  00000+0  59485-3 0  9998",
        "tle_line2": "2 35631  86.3675  22.2144 0018823 126.5445  50.6772 14.47299747871556"
      },
      "geometry": {
        "type": "Point",
        "coordinates": [
          -159.51150730253053,
          21.038785997419893
        ]
      }
    },
    {
      "type": "Feature",
      "properties": {
        "norad_id": 35680,
        "name": "IRIDIUM 33 DEB",
        "group": "iridium-33-debris",
        "lat": -28.00687614182566,
        "lon": 20.383737880364315,
        "alt_km": 753.1746016658662,
        "timestamp": "2025-12-10T14:53:37.473707+00:00",
        "meta_object_name": "IRIDIUM 33 DEB",
        "meta_object_id": "1997-051RJ",
        "meta_epoch": "2025-12-09T21:01:33.153888",
        "meta_mean_motion": 14.20836605,
        "meta_eccentricity": 0.0150503,
        "meta_inclination": 86.1036,
        "meta_ra_of_asc_node": 22.7904,
        "meta_arg_of_pericenter": 287.6789,
        "meta_mean_anomaly": 197.3523,
        "meta_ephemeris_type": 0,
        "meta_classification_type": "U",
        "meta_norad_cat_id": 35680,
        "meta_element_set_no": 999,
        "meta_rev_at_epoch": 60660,
        "meta_bstar": 0.0057995637,
        "meta_mean_motion_dot": 0.0001408,
        "meta_mean_motion_ddot": 0,
        "tle_line1": "1 35680U 97051RJ  25343.87607817  .00014080  00000+0  57996-2 0  9995",
        "tle_line2": "2 35680  86.1036  22.7904 0150503 287.6789 197.3523 14.20836605606606"
      },
      "geometry": {
        "type": "Point",
        "coordinates": [
          20.383737880364315,
          -28.00687614182566
        ]
      }
    }
  ]
}